NORAD_CAT_ID,OBJECT_NAME,OBJECT_TYPE,EPOCH,MEAN_MOTION,ECCENTRICITY,INCLINATION,RA_OF_ASC_NODE,ARG_OF_PERICENTER,MEAN_ANOMALY,BSTAR,MEAN_MOTION_DOT,MEAN_MOTION_DDOT,TLE_LINE0,TLE_LINE1,TLE_LINE2,SEMIMAJOR_AXIS,PERIOD,APOGEE,PERIGEE,DECAYED
49148.0,STARLINK-3048,PAYLOAD,2022-08-22 17:13:53,14.96704134,0.0003197,69.9992,299.5021,251.9837,108.0973,-7.0831e-05,-9.02e-06,0.0,0 STARLINK-3048,1 49148U 21082U   22234.71797764 -.00000902  00000-0 -70831-4 0  9996,2 49148  69.9992 299.5021 0003197 251.9837 108.0973 14.96704134 53628,6955.225,96.211,579.314,574.867,0.0
49148.0,STARLINK-3048,PAYLOAD,2022-08-23 10:52:30,14.96709682,0.0003279,69.9991,297.6531,252.345,107.735,-7.9247e-05,-9.98e-06,0.0,0 STARLINK-3048,1 49148U 21082U   22235.45312983 -.00000998  00000-0 -79247-4 0  9999,2 49148  69.9991 297.6531 0003279 252.3450 107.7350 14.96709682 52604,6955.208000000001,96.211,579.354,574.7919999999998,0.0
49148.0,STARLINK-3048,PAYLOAD,2022-08-23 15:41:13,14.96709511,0.0003286999999999,69.999,297.1489,252.5097,107.5702,-7.607e-05,-9.62e-06,0.0,0 STARLINK-3048,1 49148U 21082U   22235.65362664 -.00000962  00000-0 -76070-4 0  9994,2 49148  69.9990 297.1489 0003287 252.5097 107.5702 14.96709511 52631,6955.209,96.211,579.36,574.7869999999998,0.0
49148.0,STARLINK-3048,PAYLOAD,2022-08-24 10:56:05,14.96704255,0.0003286999999999,69.999,295.1318,252.4764,107.6035,5.1798e-05,5.01e-06,0.0,0 STARLINK-3048,1 49148U 21082U   22236.45561429  .00000501  00000-0  51798-4 0  9990,2 49148  69.9990 295.1318 0003287 252.4764 107.6035 14.96704255 52753,6955.225,96.211,579.376,574.804,0.0
49148.0,STARLINK-3048,PAYLOAD,2022-08-25 07:47:10,14.96708766,0.0003279,69.999,292.9468,252.4488,107.6312,5.9395e-05,5.88e-06,0.0,0 STARLINK-3048,1 49148U 21082U   22237.32443181  .00000588  00000-0  59395-4 0  9997,2 49148  69.9990 292.9468 0003279 252.4488 107.6312 14.96708766 54018,6955.2109999999975,96.211,579.357,574.795,0.0
49148.0,STARLINK-3048,PAYLOAD,2022-08-25 10:59:39,14.96709273,0.0003283999999999,69.9989,292.6106,252.588,107.4919,5.1433e-05,4.97e-06,0.0,0 STARLINK-3048,1 49148U 21082U   22237.45809622  .00000497  00000-0  51433-4 0  9991,2 49148  69.9989 292.6106 0003284 252.5880 107.4919 14.96709273 52906,6955.209,96.211,579.3580000000002,574.79,0.0
49148.0,STARLINK-3048,PAYLOAD,2022-08-26 09:26:59,14.96713245,0.0003283999999999,69.9988,290.2573,252.4168,107.6632,5.7779e-05,5.700000000000001e-06,0.0,0 STARLINK-3048,1 49148U 21082U   22238.39374355  .00000570  00000-0  57779-4 0  9996,2 49148  69.9988 290.2573 0003284 252.4168 107.6632 14.96713245 54174,6955.196999999999,96.211,579.346,574.778,0.0
49148.0,STARLINK-3048,PAYLOAD,2022-08-26 11:03:13,14.9671351,0.0003304,69.9987,290.0892,252.6997,107.38,4.7828e-05,4.56e-06,0.0,0 STARLINK-3048,1 49148U 21082U   22238.46057568  .00000456  00000-0  47828-4 0  9995,2 49148  69.9987 290.0892 0003304 252.6997 107.3800 14.96713510 53055,6955.196,96.211,579.359,574.763,0.0
49148.0,STARLINK-3048,PAYLOAD,2022-08-26 15:51:47,14.96821557,0.0003553999999999,69.9987,289.5846,256.8844,103.1917,0.001256,0.00014353,0.0,0 STARLINK-3048,1 49148U 21082U   22238.66096662  .00014353  00000-0  12560-2 0  9999,2 49148  69.9987 289.5846 0003554 256.8844 103.1917 14.96821557 54214,6954.861999999999,96.204,579.198,574.255,0.0
49148.0,STARLINK-3048,PAYLOAD,2022-08-26 20:40:22,14.96917236,0.0002148,69.9989,289.08,294.9988,65.0947,0.0022681999999999,0.00026101,0.0,0 STARLINK-3048,1 49148U 21082U   22238.86136729  .00026101  00000-0  22682-2 0  9990,2 49148  69.9989 289.0800 0002148 294.9988  65.0947 14.96917236 53118,6954.565,96.198,577.924,574.936,0.0
49148.0,STARLINK-3048,PAYLOAD,2022-08-27 12:41:44,14.97486651,0.0003826,69.9989,287.3989,264.4045,95.6677,0.0078136,0.00092349,0.0,0 STARLINK-3048,1 49148U 21082U   22239.52898901  .00092349  00000-0  78136-2 0  9993,2 49148  69.9989 287.3989 0003826 264.4045  95.6677 14.97486651 53210,6952.802,96.161,577.327,572.007,0.0
49148.0,STARLINK-3048,PAYLOAD,2022-08-27 20:42:30,14.97637519,0.0003604,69.9984,286.5554,249.7651,110.312,0.0087269,0.00103724,0.0,0 STARLINK-3048,1 49148U 21082U   22239.86285285  .00103724  00000-0  87269-2 0  9992,2 49148  69.9984 286.5554 0003604 249.7651 110.3120 14.97637519 53261,6952.335,96.151,576.706,571.695,0.0
49148.0,STARLINK-3048,PAYLOAD,2022-08-28 01:31:00,14.97676248,0.0004263999999999,69.9985,286.0517,255.9303,104.1381,0.0086552,0.00102966,0.0,0 STARLINK-3048,1 49148U 21082U   22240.06320537  .00102966  00000-0  86552-2 0  9997,2 49148  69.9985 286.0517 0004264 255.9303 104.1381 14.97676248 54423,6952.215,96.149,577.045,571.116,0.0
49148.0,STARLINK-3048,PAYLOAD,2022-08-28 09:31:51,14.97740144,0.0004161,69.9985,285.2129,267.7907,92.2775,0.0083784,0.00099788,0.0,0 STARLINK-3048,1 49148U 21082U   22240.39711885  .00099788  00000-0  83784-2 0  9994,2 49148  69.9985 285.2129 0004161 267.7907  92.2775 14.97740144 54476,6952.018,96.145,576.775,570.99,0.0
49148.0,STARLINK-3048,PAYLOAD,2022-08-28 12:44:10,14.97762382,0.0003841,69.9986,284.8772,264.6974,95.3746,0.0081931,0.00097603,0.0,0 STARLINK-3048,1 49148U 21082U   22240.53067943  .00097603  00000-0  81931-2 0  9995,2 49148  69.9986 284.8772 0003841 264.6974  95.3746 14.97762382 53367,6951.949000000001,96.143,576.484,571.144,0.0
49148.0,STARLINK-3048,PAYLOAD,2022-08-28 15:56:30,14.97784911,0.0003821,69.9985,284.5406,261.3805,98.6921,0.0080333,0.00095727,0.0,0 STARLINK-3048,1 49148U 21082U   22240.66423644  .00095727  00000-0  80333-2 0  9993,2 49148  69.9985 284.5406 0003821 261.3805  98.6921 14.97784911 54513,6951.879,96.142,576.4,571.0880000000002,0.0
49148.0,STARLINK-3048,PAYLOAD,2022-08-29 09:34:05,14.98163439,0.00037,69.9985,282.6892,255.4486,104.6262,0.0024997,0.00029733,0.0,0 STARLINK-3048,1 49148U 21082U   22241.39867906  .00029733  00000-0  24997-2 0  9995,2 49148  69.9985 282.6892 0003700 255.4486 104.6262 14.98163439 54621,6950.708000000001,96.118,575.145,570.001,0.0
49148.0,STARLINK-3048,PAYLOAD,2022-08-29 12:46:22,14.98163044,0.0003447,69.9989,282.3526,257.6406,102.4367,0.002617,0.00031138,0.0,0 STARLINK-3048,1 49148U 21082U   22241.53220953  .00031138  00000-0  26170-2 0  9993,2 49148  69.9989 282.3526 0003447 257.6406 102.4367 14.98163044 53511,6950.709,96.118,574.97,570.178,0.0
49148.0,STARLINK-3048,PAYLOAD,2022-08-29 15:58:39,14.9817016,0.0003631,69.9984,282.0161,254.2672,105.8087,0.0025137,0.00029905,0.0,0 STARLINK-3048,1 49148U 21082U   22241.66573842  .00029905  00000-0  25137-2 0  9996,2 49148  69.9984 282.0161 0003631 254.2672 105.8087 14.98170160 53536,6950.687,96.117,575.076,570.028,0.0
49148.0,STARLINK-3048,PAYLOAD,2022-08-30 01:35:25,14.98322259,0.0004324,69.9991,281.007,260.6023,99.4647,6.8786e-05,7.28e-06,0.0,0 STARLINK-3048,1 49148U 21082U   22242.06627301  .00000728  00000-0  68786-4 0  9992,2 49148  69.9991 281.0070 0004324 260.6023  99.4647 14.98322259 54723,6950.217,96.107,575.087,569.077,0.0
49148.0,STARLINK-3048,PAYLOAD,2022-08-30 11:12:14,14.98326998,0.0004189,69.9985,279.9962,254.8258,105.2438,-3.9972e-05,-5.700000000000001e-06,0.0,0 STARLINK-3048,1 49148U 21082U   22242.46683466 -.00000570  00000-0 -39972-4 0  9992,2 49148  69.9985 279.9962 0004189 254.8258 105.2438 14.98326998 53655,6950.2019999999975,96.107,574.979,569.156,0.0
49148.0,STARLINK-3048,PAYLOAD,2022-08-30 16:00:38,14.98322871,0.0004059999999999,69.9982,279.4913,258.4186,101.6518,5.7742e-05,5.96e-06,0.0,0 STARLINK-3048,1 49148U 21082U   22242.66711652  .00000596  00000-0  57742-4 0  9994,2 49148  69.9982 279.4913 0004060 258.4186 101.6518 14.98322871 53689,6950.215,96.107,574.9019999999998,569.258,0.0
49148.0,STARLINK-3048,PAYLOAD,2022-08-31 09:38:05,14.98345374,0.0003809,69.9984,277.6394,262.7104,97.3622,0.00025516,2.954e-05,0.0,0 STARLINK-3048,1 49148U 21082U   22243.40145827  .00002954  00000-0  25516-3 0  9995,2 49148  69.9984 277.6394 0003809 262.7104  97.3622 14.98345374 54920,6950.145,96.106,574.658,569.363,0.0
49148.0,STARLINK-3048,PAYLOAD,2022-08-31 11:14:13,14.9834656,0.0003773999999999,69.9985,277.471,261.6987,98.3744,0.00026283,3.046e-05,0.0,0 STARLINK-3048,1 49148U 21082U   22243.46821674  .00003046  00000-0  26283-3 0  9997,2 49148  69.9985 277.4710 0003774 261.6987  98.3744 14.98346560 53809,6950.142,96.106,574.63,569.384,0.0
49148.0,STARLINK-3048,PAYLOAD,2022-09-01 09:40:06,14.98357768,0.0003717,69.9995,275.1146,255.2579,104.8168,-0.00033306,-4.068e-05,0.0,0 STARLINK-3048,1 49148U 21082U   22244.40285664 -.00004068  00000-0 -33306-3 0  9996,2 49148  69.9995 275.1146 0003717 255.2579 104.8168 14.98357768 55077,6950.107,96.105,574.555,569.389,0.0
49148.0,STARLINK-3048,PAYLOAD,2022-09-02 01:41:27,14.98341343,0.0003791,69.9987,273.4318,258.6006,101.4727,8.721799999999999e-05,9.48e-06,0.0,0 STARLINK-3048,1 49148U 21082U   22245.07045309  .00000948  00000-0  87218-4 0  9993,2 49148  69.9987 273.4318 0003791 258.6006 101.4727 14.98341343 55171,6950.158,96.106,574.658,569.388,0.0
49148.0,STARLINK-3048,PAYLOAD,2022-09-02 11:18:14,14.98353352,0.0003788,69.998,272.4211,258.6788,101.3946,-0.00010126,-1.302e-05,0.0,0 STARLINK-3048,1 49148U 21082U   22245.47100631 -.00001302  00000-0 -10126-3 0  9997,2 49148  69.9980 272.4211 0003788 258.6788 101.3946 14.98353352 54105,6950.121,96.106,574.618,569.3530000000002,0.0
49148.0,STARLINK-3048,PAYLOAD,2022-09-02 14:30:32,14.983391199999998,0.0003513,69.9984,272.0845,259.4383,100.6381,-0.00024331,-2.996e-05,0.0,0 STARLINK-3048,1 49148U 21082U   22245.60453783 -.00002996  00000-0 -24331-3 0  9994,2 49148  69.9984 272.0845 0003513 259.4383 100.6381 14.98339120 54128,6950.165,96.106,574.471,569.5880000000002,0.0
49148.0,STARLINK-3048,PAYLOAD,2022-09-03 11:20:16,14.98333094,0.0003756,69.9978,269.8963,258.9418,101.1318,-9.765e-05,-1.258e-05,0.0,0 STARLINK-3048,1 49148U 21082U   22246.47241415 -.00001258  00000-0 -97650-4 0  9992,2 49148  69.9978 269.8963 0003756 258.9418 101.1318 14.98333094 54252,6950.183000000001,96.107,574.659,569.438,0.0
